[
    {
        "Altitude(m)": 557354.4142888698,
        "Argument of Periapsis(deg)": 0.013245982221427002,
        "Eccentricity": 0.0,
        "Inclination(deg)": 53.0,
        "Latitude(deg)": 41.92574894739126,
        "Longitude(deg)": 120.72476080490337,
        "Mean Anomaly(deg)": 56.54688573515518,
        "RAAN(deg)": 179.98028673705602,
        "Satellite Name": "Starlink Shell 1 794",
        "Satellite Number": 794,
        "Semi-Major Axis(m)": 6931778.249405717,
        "Time(s)": 380
    },
    {
        "Altitude(m)": 557435.3009926543,
        "Argument of Periapsis(deg)": 0.013594560700938237,
        "Eccentricity": 0.0,
        "Inclination(deg)": 53.0,
        "Latitude(deg)": 42.29485127563741,
        "Longitude(deg)": 121.36576562714177,
        "Mean Anomaly(deg)": 57.1737169387119,
        "RAAN(deg)": 179.97976796697859,
        "Satellite Name": "Starlink Shell 1 794",
        "Satellite Number": 794,
        "Semi-Major Axis(m)": 6931778.249405717,
        "Time(s)": 390
    },
    {
        "Altitude(m)": 557515.6357785464,
        "Argument of Periapsis(deg)": 0.013943139180449475,
        "Eccentricity": 0.0,
        "Inclination(deg)": 53.0,
        "Latitude(deg)": 42.659823683664335,
        "Longitude(deg)": 122.01473209508657,
        "Mean Anomaly(deg)": 57.800548142268596,
        "RAAN(deg)": 179.97924919690107,
        "Satellite Name": "Starlink Shell 1 794",
        "Satellite Number": 794,
        "Semi-Major Axis(m)": 6931778.249405717,
        "Time(s)": 400
    },
    {
        "Altitude(m)": 557595.3675858267,
        "Argument of Periapsis(deg)": 0.014291717659960712,
        "Eccentricity": 0.0,
        "Inclination(deg)": 53.0,
        "Latitude(deg)": 43.020565722584024,
        "Longitude(deg)": 122.67176466151432,
        "Mean Anomaly(deg)": 58.427379345825315,
        "RAAN(deg)": 179.97873042682363,
        "Satellite Name": "Starlink Shell 1 794",
        "Satellite Number": 794,
        "Semi-Major Axis(m)": 6931778.249405717,
        "Time(s)": 410
    },
    {
        "Altitude(m)": 557674.4458695933,
        "Argument of Periapsis(deg)": 0.014640296139471948,
        "Eccentricity": 0.0,
        "Inclination(deg)": 53.0,
        "Latitude(deg)": 43.376975110032525,
        "Longitude(deg)": 123.33696402659824,
        "Mean Anomaly(deg)": 59.05421054938204,
        "RAAN(deg)": 179.97821165674614,
        "Satellite Name": "Starlink Shell 1 794",
        "Satellite Number": 794,
        "Semi-Major Axis(m)": 6931778.249405717,
        "Time(s)": 420
    },
    {
        "Altitude(m)": 557752.8206261429,
        "Argument of Periapsis(deg)": 0.014988874618983185,
        "Eccentricity": 0.0,
        "Inclination(deg)": 53.0,
        "Latitude(deg)": 43.72894774984804,
        "Longitude(deg)": 124.01042726818403,
        "Mean Anomaly(deg)": 59.68104175293874,
        "RAAN(deg)": 179.97769288666865,
        "Satellite Name": "Starlink Shell 1 794",
        "Satellite Number": 794,
        "Semi-Major Axis(m)": 6931778.249405717,
        "Time(s)": 430
    },
    {
        "Altitude(m)": 557830.4424180988,
        "Argument of Periapsis(deg)": 0.015337453098494424,
        "Eccentricity": 0.0,
        "Inclination(deg)": 53.0,
        "Latitude(deg)": 44.07637775762402,
        "Longitude(deg)": 124.69224795337344,
        "Mean Anomaly(deg)": 60.30787295649551,
        "RAAN(deg)": 179.9771741165912,
        "Satellite Name": "Starlink Shell 1 794",
        "Satellite Number": 794,
        "Semi-Major Axis(m)": 6931778.249405717,
        "Time(s)": 440
    },
    {
        "Altitude(m)": 557907.2623991661,
        "Argument of Periapsis(deg)": 0.01568603157800566,
        "Eccentricity": 0.0,
        "Inclination(deg)": 53.0,
        "Latitude(deg)": 44.41915749255181,
        "Longitude(deg)": 125.38251471864751,
        "Mean Anomaly(deg)": 60.93470416005218,
        "RAAN(deg)": 179.97665534651375,
        "Satellite Name": "Starlink Shell 1 794",
        "Satellite Number": 794,
        "Semi-Major Axis(m)": 6931778.249405717,
        "Time(s)": 450
    },
    {
        "Altitude(m)": 557983.2323386328,
        "Argument of Periapsis(deg)": 0.0160346100575169,
        "Eccentricity": 0.0,
        "Inclination(deg)": 53.0,
        "Latitude(deg)": 44.75717759597187,
        "Longitude(deg)": 126.0813113445321,
        "Mean Anomaly(deg)": 61.561535363608925,
        "RAAN(deg)": 179.97613657643623,
        "Satellite Name": "Starlink Shell 1 794",
        "Satellite Number": 794,
        "Semi-Major Axis(m)": 6931778.249405717,
        "Time(s)": 460
    },
    {
        "Altitude(m)": 558058.3046454593,
        "Argument of Periapsis(deg)": 0.016383188537028134,
        "Eccentricity": 0.0,
        "Inclination(deg)": 53.0,
        "Latitude(deg)": 45.090327037060405,
        "Longitude(deg)": 126.78871681233223,
        "Mean Anomaly(deg)": 62.188366567165595,
        "RAAN(deg)": 179.97561780635877,
        "Satellite Name": "Starlink Shell 1 794",
        "Satellite Number": 794,
        "Semi-Major Axis(m)": 6931778.249405717,
        "Time(s)": 470
    },
    {
        "Altitude(m)": 558132.4323920872,
        "Argument of Periapsis(deg)": 0.01673176701653937,
        "Eccentricity": 0.0,
        "Inclination(deg)": 53.0,
        "Latitude(deg)": 45.41849316608075,
        "Longitude(deg)": 127.50480383063395,
        "Mean Anomaly(deg)": 62.81519777072232,
        "RAAN(deg)": 179.9750990362813,
        "Satellite Name": "Starlink Shell 1 794",
        "Satellite Number": 794,
        "Semi-Major Axis(m)": 6931778.249405717,
        "Time(s)": 480
    },
    {
        "Altitude(m)": 558205.5693378524,
        "Argument of Periapsis(deg)": 0.017080345496050607,
        "Eccentricity": 0.0,
        "Inclination(deg)": 53.0,
        "Latitude(deg)": 45.741561775623836,
        "Longitude(deg)": 128.22963885808983,
        "Mean Anomaly(deg)": 63.44202897427906,
        "RAAN(deg)": 179.97458026620382,
        "Satellite Name": "Starlink Shell 1 794",
        "Satellite Number": 794,
        "Semi-Major Axis(m)": 6931778.249405717,
        "Time(s)": 490
    },
    {
        "Altitude(m)": 558277.6699520377,
        "Argument of Periapsis(deg)": 0.017428923975561842,
        "Eccentricity": 0.0,
        "Inclination(deg)": 53.0,
        "Latitude(deg)": 46.05941717026116,
        "Longitude(deg)": 128.96328211057545,
        "Mean Anomaly(deg)": 64.06886017783575,
        "RAAN(deg)": 179.97406149612635,
        "Satellite Name": "Starlink Shell 1 794",
        "Satellite Number": 794,
        "Semi-Major Axis(m)": 6931778.249405717,
        "Time(s)": 500
    },
    {
        "Altitude(m)": 558348.6894365612,
        "Argument of Periapsis(deg)": 0.01777750245507308,
        "Eccentricity": 0.0,
        "Inclination(deg)": 53.0,
        "Latitude(deg)": 46.371942245024925,
        "Longitude(deg)": 129.70578604103093,
        "Mean Anomaly(deg)": 64.6956913813925,
        "RAAN(deg)": 179.9735427260489,
        "Satellite Name": "Starlink Shell 1 794",
        "Satellite Number": 794,
        "Semi-Major Axis(m)": 6931778.249405717,
        "Time(s)": 510
    },
    {
        "Altitude(m)": 558418.5837482604,
        "Argument of Periapsis(deg)": 0.018126080934584315,
        "Eccentricity": 0.0,
        "Inclination(deg)": 53.0,
        "Latitude(deg)": 46.67901857311173,
        "Longitude(deg)": 130.4571953191573,
        "Mean Anomaly(deg)": 65.32252258494916,
        "RAAN(deg)": 179.9730239559714,
        "Satellite Name": "Starlink Shell 1 794",
        "Satellite Number": 794,
        "Semi-Major Axis(m)": 6931778.249405717,
        "Time(s)": 520
    },
    {
        "Altitude(m)": 558487.3096207863,
        "Argument of Periapsis(deg)": 0.018474659414095554,
        "Eccentricity": 0.0,
        "Inclination(deg)": 53.0,
        "Latitude(deg)": 46.98052650319318,
        "Longitude(deg)": 131.2175467997678,
        "Mean Anomaly(deg)": 65.94935378850592,
        "RAAN(deg)": 179.97250518589394,
        "Satellite Name": "Starlink Shell 1 794",
        "Satellite Number": 794,
        "Semi-Major Axis(m)": 6931778.249405717,
        "Time(s)": 530
    },
    {
        "Altitude(m)": 558554.8245860928,
        "Argument of Periapsis(deg)": 0.018823237893606792,
        "Eccentricity": 0.0,
        "Inclination(deg)": 53.0,
        "Latitude(deg)": 47.2763452666915,
        "Longitude(deg)": 131.98686796885156,
        "Mean Anomaly(deg)": 66.57618499206264,
        "RAAN(deg)": 179.97198641581647,
        "Satellite Name": "Starlink Shell 1 794",
        "Satellite Number": 794,
        "Semi-Major Axis(m)": 6931778.249405717,
        "Time(s)": 540
    },
    {
        "Altitude(m)": 558621.0869955012,
        "Argument of Periapsis(deg)": 0.019171816373118027,
        "Eccentricity": 0.0,
        "Inclination(deg)": 53.0,
        "Latitude(deg)": 47.56635309534497,
        "Longitude(deg)": 132.76517689531556,
        "Mean Anomaly(deg)": 67.20301619561934,
        "RAAN(deg)": 179.97146764573898,
        "Satellite Name": "Starlink Shell 1 794",
        "Satellite Number": 794,
        "Semi-Major Axis(m)": 6931778.249405717,
        "Time(s)": 550
    },
    {
        "Altitude(m)": 558686.0560403466,
        "Argument of Periapsis(deg)": 0.019520394852629266,
        "Eccentricity": 0.0,
        "Inclination(deg)": 53.0,
        "Latitude(deg)": 47.85042734935644,
        "Longitude(deg)": 133.55248217802688,
        "Mean Anomaly(deg)": 67.82984739917606,
        "RAAN(deg)": 179.97094887566152,
        "Satellite Name": "Starlink Shell 1 794",
        "Satellite Number": 794,
        "Semi-Major Axis(m)": 6931778.249405717,
        "Time(s)": 560
    }
]